ONEWEB-0275             
1 48993U 21060AC  26159.18579429  .00000124  00000+0  29049-3 0  9993
2 48993  87.9106 230.5625 0001982  97.5614 262.5742 13.16594704238372
ONEWEB-0276             
1 48994U 21060AD  26159.21903667 -.00000004  00000+0 -44362-4 0  9998
2 48994  87.9100 230.5554 0002040  93.9198 266.2166 13.16594592238399
ONEWEB-0277             
1 48995U 21060AE  26159.23170843  .00000032  00000+0  51250-4 0  9996
2 48995  87.9095 230.5626 0001886 100.5111 259.6233 13.16593268238389
ONEWEB-0278             
1 48996U 21060AF  26159.22219169 -.00000011  00000+0 -62565-4 0  9991
2 48996  87.9103 230.5539 0002244 102.4475 257.6908 13.16597219238518
ONEWEB-0279             
1 48997U 21060AG  26159.23012397  .00000023  00000+0  26508-4 0  9995
2 48997  87.9101 230.5509 0001825  95.3003 264.8336 13.16594267238442
ONEWEB-0280             
1 48998U 21060AH  26159.24515189  .00000072  00000+0  15576-3 0  9990
2 48998  87.9099 230.5521 0001992 109.3350 250.7996 13.16593938238382
ONEWEB-0281             
1 48999U 21060AJ  26159.25070901  .00000036  00000+0  60816-4 0  9998
2 48999  87.9101 230.5461 0002106 100.1174 260.0195 13.16594653238459
ONEWEB-0282             
1 49000U 21060AK  26159.20477504  .00000002  00000+0 -27583-4 0  9995
2 49000  87.9101 230.5635 0001892 101.6869 258.4474 13.16596813238422
ONEWEB-0283             
1 49001U 21060AL  26159.19370351  .00000077  00000+0  16880-3 0  9994
2 49001  87.9101 230.5652 0001893  97.0640 263.0706 13.16594231238431
ONEWEB-0284             
1 49002U 21060AM  26159.18737641  .00000181  00000+0  43857-3 0  9993
2 49002  87.9103 230.5596 0002149 108.4497 251.6867 13.16594657238414
ONEWEB-0285             
1 49075U 21075A   26159.06428725  .00000440  00000+0  11867-2 0  9999
2 49075  87.8950 352.4766 0001747  89.8411 270.2918 13.12443125234012
ONEWEB-0286             
1 49076U 21075B   26159.04635467 -.00000058  00000+0 -19662-3 0  9990
2 49076  87.8937 352.4978 0002045  87.4310 272.7052 13.12444263233364
ONEWEB-0287             
1 49077U 21075C   26159.13024641  .00000037  00000+0  61242-4 0  9994
2 49077  87.9139   7.6676 0002270  88.5007 271.6385 13.17649177232439
ONEWEB-0288             
1 49078U 21075D   26159.09900603 -.00000303  00000+0 -87819-3 0  9996
2 49078  87.8948 352.4629 0001965  92.8432 267.2922 13.12442965233997
ONEWEB-0289             
1 49079U 21075E   26159.09298672  .00000078  00000+0  16878-3 0  9997
2 49079  87.9144   7.6918 0001676  98.9994 261.1327 13.17648981233001
ONEWEB-0290             
1 49080U 21075F   26159.14206296 -.00000056  00000+0 -17720-3 0  9991
2 49080  87.9149   7.6537 0001621 101.5377 258.5937 13.17647618232429
ONEWEB-0291             
1 49081U 21075G   26159.12687449  .00000054  00000+0  10497-3 0  9993
2 49081  87.9143   7.6643 0002102  95.3440 264.7931 13.17648369232414
ONEWEB-0293             
1 49082U 21075H   26159.00030298  .00000051  00000+0  97092-4 0  9999
2 49082  87.9138   7.6934 0001826  91.7008 268.4332 13.17647476232429
ONEWEB-0294             
1 49083U 21075J   26159.02954911 -.00000366  00000+0 -10540-2 0  9991
2 49083  87.8949 352.4805 0001642  98.9645 261.1669 13.12444085233373
ONEWEB-0295             
1 49084U 21075K   26159.15133529  .00000083  00000+0  18148-3 0  9997
2 49084  87.9138   7.6675 0002129  91.5648 268.5727 13.17647983232408
ONEWEB-0296             
1 49085U 21075L   26159.00921877 -.00000053  00000+0 -18201-3 0  9992
2 49085  87.8954 352.4914 0002074  95.9906 264.1459 13.12441682233379
ONEWEB-0297             
1 49086U 21075M   26159.03971386 -.00000162  00000+0 -48539-3 0  9994
2 49086  87.8938 352.4978 0001928  89.8044 270.3305 13.12444125233985
ONEWEB-0298             
1 49087U 21075N   26158.85195274  .00001129  00000+0  28733-2 0  9993
2 49087  87.9137   7.7249 0002078  84.1402 275.9966 13.17659828232393
ONEWEB-0299             
1 49088U 21075P   26159.00538037  .00000039  00000+0  68509-4 0  9996
2 49088  87.9149   7.6738 0002046  87.2044 272.9322 13.17649423232393
ONEWEB-0300             
1 49089U 21075Q   26159.03208665 -.00000290  00000+0 -84273-3 0  9997
2 49089  87.8955 352.4779 0002000  78.8628 281.2726 13.12443773234004
ONEWEB-0301             
1 49090U 21075R   26159.09223067 -.00000277  00000+0 -80548-3 0  9994
2 49090  87.8948 352.4637 0001816  77.8204 282.3128 13.12443064233374
ONEWEB-0302             
1 49091U 21075S   26159.00244777  .00000223  00000+0  58375-3 0  9999
2 49091  87.8951 352.4932 0001795  99.2526 260.8806 13.12441651233349
ONEWEB-0304             
1 49092U 21075T   26159.13193432  .00000024  00000+0  28782-4 0  9994
2 49092  87.9140   7.6715 0001996  88.6089 271.5271 13.17648971232385
ONEWEB-0305             
1 49093U 21075U   26159.12518625  .00000061  00000+0  12304-3 0  9992
2 49093  87.9150   7.6566 0002217  89.5128 270.6257 13.17648359232410
ONEWEB-0308             
1 49094U 21075V   26158.91943457  .00000371  00000+0  99678-3 0  9997
2 49094  87.8952 352.5020 0001787  88.7190 271.4143 13.12442130233348
