OBJECT_NAME,OBJECT_ID,EPOCH,MEAN_MOTION,ECCENTRICITY,INCLINATION,RA_OF_ASC_NODE,ARG_OF_PERICENTER,MEAN_ANOMALY,EPHEMERIS_TYPE,CLASSIFICATION_TYPE,NORAD_CAT_ID,ELEMENT_SET_NO,REV_AT_EPOCH,BSTAR,MEAN_MOTION_DOT,MEAN_MOTION_DDOT
ONEWEB-0275,2021-060AC,2026-06-08T04:27:32.626656,13.16594704,.00019826,87.9106,230.5625,97.5614,262.5742,0,U,48993,999,23837,.29048582E-3,.124E-5,0
ONEWEB-0276,2021-060AD,2026-06-08T05:15:24.768288,13.16594592,.00020403,87.9100,230.5554,93.9198,266.2166,0,U,48994,999,23839,-.44361859E-4,-.4E-7,0
ONEWEB-0277,2021-060AE,2026-06-08T05:33:39.608352,13.16593268,.00018867,87.9095,230.5626,100.5111,259.6233,0,U,48995,999,23838,.51250469E-4,.32E-6,0
ONEWEB-0278,2021-060AF,2026-06-08T05:19:57.362016,13.16597219,.00022446,87.9103,230.5539,102.4475,257.6908,0,U,48996,999,23851,-.62565045E-4,-.11E-6,0
ONEWEB-0279,2021-060AG,2026-06-08T05:31:22.711008,13.16594267,.00018257,87.9101,230.5509,95.3003,264.8336,0,U,48997,999,23844,.26507648E-4,.23E-6,0
ONEWEB-0280,2021-060AH,2026-06-08T05:53:01.123296,13.16593938,.00019925,87.9099,230.5521,109.3350,250.7996,0,U,48998,999,23838,.15575981E-3,.72E-6,0
ONEWEB-0281,2021-060AJ,2026-06-08T06:01:01.258464,13.16594653,.00021069,87.9101,230.5461,100.1174,260.0195,0,U,48999,999,23845,.60815904E-4,.36E-6,0
ONEWEB-0282,2021-060AK,2026-06-08T04:54:52.563456,13.16596813,.00018928,87.9101,230.5635,101.6869,258.4474,0,U,49000,999,23842,-.27583496E-4,.2E-7,0
ONEWEB-0283,2021-060AL,2026-06-08T04:38:55.983264,13.16594231,.00018933,87.9101,230.5652,97.0640,263.0706,0,U,49001,999,23843,.16880305E-3,.77E-6,0
ONEWEB-0284,2021-060AM,2026-06-08T04:29:49.321824,13.16594657,.00021497,87.9103,230.5596,108.4497,251.6867,0,U,49002,999,23841,.43856952E-3,.181E-5,0
ONEWEB-0285,2021-075A,2026-06-08T01:32:34.418400,13.12443125,.00017478,87.8950,352.4766,89.8411,270.2918,0,U,49075,999,23401,.11867272E-2,.44E-5,0
ONEWEB-0286,2021-075B,2026-06-08T01:06:45.043488,13.12444263,.00020458,87.8937,352.4978,87.4310,272.7052,0,U,49076,999,23336,-.19661514E-3,-.58E-6,0
ONEWEB-0287,2021-075C,2026-06-08T03:07:33.289824,13.17649177,.00022701,87.9139,7.6676,88.5007,271.6385,0,U,49077,999,23243,.61241909E-4,.37E-6,0
ONEWEB-0288,2021-075D,2026-06-08T02:22:34.120992,13.12442965,.00019655,87.8948,352.4629,92.8432,267.2922,0,U,49078,999,23399,-.87818638E-3,-.303E-5,0
ONEWEB-0289,2021-075E,2026-06-08T02:13:54.052608,13.17648981,.00016765,87.9144,7.6918,98.9994,261.1327,0,U,49079,999,23300,.1687829E-3,.78E-6,0
ONEWEB-0290,2021-075F,2026-06-08T03:24:34.239744,13.17647618,.00016213,87.9149,7.6537,101.5377,258.5937,0,U,49080,999,23242,-.17719988E-3,-.56E-6,0
ONEWEB-0291,2021-075G,2026-06-08T03:02:41.955936,13.17648369,.00021023,87.9143,7.6643,95.3440,264.7931,0,U,49081,999,23241,.10497041E-3,.54E-6,0
ONEWEB-0293,2021-075H,2026-06-08T00:00:26.177472,13.17647476,.00018262,87.9138,7.6934,91.7008,268.4332,0,U,49082,999,23242,.97092334E-4,.51E-6,0
ONEWEB-0294,2021-075J,2026-06-08T00:42:33.043104,13.12444085,.00016421,87.8949,352.4805,98.9645,261.1669,0,U,49083,999,23337,-.10540183E-2,-.366E-5,0
ONEWEB-0295,2021-075K,2026-06-08T03:37:55.369056,13.17647983,.00021293,87.9138,7.6675,91.5648,268.5727,0,U,49084,999,23240,.18147638E-3,.83E-6,0
ONEWEB-0296,2021-075L,2026-06-08T00:13:16.501728,13.12441682,.00020742,87.8954,352.4914,95.9906,264.1459,0,U,49085,999,23337,-.18200808E-3,-.53E-6,0
ONEWEB-0297,2021-075M,2026-06-08T00:57:11.277504,13.12444125,.00019283,87.8938,352.4978,89.8044,270.3305,0,U,49086,999,23398,-.4853932E-3,-.162E-5,0
ONEWEB-0298,2021-075N,2026-06-07T20:26:48.716736,13.17659828,.00020789,87.9137,7.7249,84.1402,275.9966,0,U,49087,999,23239,.28732771E-2,.1129E-4,0
ONEWEB-0299,2021-075P,2026-06-08T00:07:44.863968,13.17649423,.00020461,87.9149,7.6738,87.2044,272.9322,0,U,49088,999,23239,.68508876E-4,.39E-6,0
ONEWEB-0300,2021-075Q,2026-06-08T00:46:12.286560,13.12443773,.00020008,87.8955,352.4779,78.8628,281.2726,0,U,49089,999,23400,-.84272596E-3,-.29E-5,0
ONEWEB-0301,2021-075R,2026-06-08T02:12:48.729888,13.12443064,.0001816,87.8948,352.4637,77.8204,282.3128,0,U,49090,999,23337,-.80547924E-3,-.277E-5,0
ONEWEB-0302,2021-075S,2026-06-08T00:03:31.487328,13.12441651,.00017952,87.8951,352.4932,99.2526,260.8806,0,U,49091,999,23334,.58374658E-3,.223E-5,0
ONEWEB-0304,2021-075T,2026-06-08T03:09:59.125248,13.17648971,.00019961,87.9140,7.6715,88.6089,271.5271,0,U,49092,999,23238,.28782238E-4,.24E-6,0
ONEWEB-0305,2021-075U,2026-06-08T03:00:16.092000,13.17648359,.0002217,87.9150,7.6566,89.5128,270.6257,0,U,49093,999,23241,.12304317E-3,.61E-6,0
ONEWEB-0308,2021-075V,2026-06-07T22:03:59.146848,13.12442130,.00017875,87.8952,352.5020,88.7190,271.4143,0,U,49094,999,23334,.99677921E-3,.371E-5,0
